[{"OBJECT_NAME":"GONETS-M 6","OBJECT_ID":"2013-048B","EPOCH":"2026-03-10T00:04:39.287136","MEAN_MOTION":12.43027361,"ECCENTRICITY":0.00201959,"INCLINATION":82.4841,"RA_OF_ASC_NODE":46.0949,"ARG_OF_PERICENTER":100.8638,"MEAN_ANOMALY":259.4716,"EPHEMERIS_TYPE":0,"CLASSIFICATION_TYPE":"U","NORAD_CAT_ID":39250,"ELEMENT_SET_NO":999,"REV_AT_EPOCH":56662,"BSTAR":0.00011217698,"MEAN_MOTION_DOT":2.6e-7,"MEAN_MOTION_DDOT":0},{"OBJECT_NAME":"THORAD DELTA 1 DEB","OBJECT_ID":"1974-089CT","EPOCH":"2026-03-09T07:39:14.134176","MEAN_MOTION":12.53493381,"ECCENTRICITY":0.00789564,"INCLINATION":101.3207,"RA_OF_ASC_NODE":210.0972,"ARG_OF_PERICENTER":3.9086,"MEAN_ANOMALY":25.2235,"EPHEMERIS_TYPE":0,"CLASSIFICATION_TYPE":"U","NORAD_CAT_ID":8556,"ELEMENT_SET_NO":999,"REV_AT_EPOCH":34445,"BSTAR":0.0006435295,"MEAN_MOTION_DOT":6.1e-7,"MEAN_MOTION_DDOT":0}]
